ONEWEB-0425             
1 51628U 22012G   25303.11882353 -.00000537  00000+0 -15749-2 0  9997
2 51628  87.8782  82.1224 0001267  90.1592 269.9681 13.10374871179198
ONEWEB-0428             
1 51629U 22012H   25303.09891132 -.00000334  00000+0 -99413-3 0  9996
2 51629  87.8772  82.1474 0001691 102.3189 257.8127 13.10370283179154
ONEWEB-0431             
1 51630U 22012J   25303.14526599  .00000601  00000+0  16866-2 0  9991
2 51630  87.8786  82.1139 0002245  97.3961 262.7422 13.10374289179216
ONEWEB-0434             
1 51631U 22012K   25303.12214643 -.00000488  00000+0 -14350-2 0  9995
2 51631  87.8778  82.1578 0000983  84.1893 275.9346 13.10374625179192
ONEWEB-0435             
1 51632U 22012L   25303.13045382 -.00000021  00000+0 -97057-4 0  9999
2 51632  87.8776  82.1473 0001703 107.5781 252.5532 13.10375927179185
ONEWEB-0436             
1 51633U 22012M   25303.20156221  .00000050  00000+0  96410-4 0  9995
2 51633  87.9126  51.5664 0001865 106.2660 253.8677 13.17650615183398
ONEWEB-0438             
1 51634U 22012N   25303.11384442 -.00000635  00000+0 -18544-2 0  9995
2 51634  87.8774  82.1509 0001377  93.1794 266.9491 13.10373422179211
ONEWEB-0439             
1 51635U 22012P   25303.11716616 -.00000609  00000+0 -17816-2 0  9990
2 51635  87.8777  82.1393 0001528  98.4094 261.7207 13.10373640179192
ONEWEB-0442             
1 51636U 22012Q   25303.26990165  .00000119  00000+0  27294-3 0  9996
2 51636  87.9120  51.6043 0001379  79.2775 280.8511 13.17648567183393
ONEWEB-0443             
1 51637U 22012R   25303.28931181  .00000031  00000+0  46302-4 0  9997
2 51637  87.9115  51.6066 0001377 104.7541 255.3743 13.17648937183447
ONEWEB-0444             
1 51638U 22012S   25303.10719922 -.00000658  00000+0 -19215-2 0  9994
2 51638  87.8772  82.1404 0001596  99.2616 260.8692 13.10370604179204
ONEWEB-0445             
1 51639U 22012T   25302.89972182  .00000079  00000+0  19016-3 0  9994
2 51639  87.8792  82.1417 0001642  89.6045 270.5270 13.10375706179187
ONEWEB-0446             
1 51640U 22012U   25303.10554472 -.00000542  00000+0 -15904-2 0  9997
2 51640  87.8776  82.1570 0001709  91.4869 268.6454 13.10371930179198
ONEWEB-0448             
1 51641U 22012V   25303.11052259 -.00000630  00000+0 -18408-2 0  9995
2 51641  87.8778  82.1559 0001530  99.9372 260.1928 13.10373109179162
ONEWEB-0449             
1 51642U 22012W   25302.88643027 -.00000489  00000+0 -14382-2 0  9997
2 51642  87.8781  82.1697 0001123  88.7996 271.3260 13.10375274179142
ONEWEB-0451             
1 51643U 22012X   25303.27412893  .00000033  00000+0  51373-4 0  9993
2 51643  87.9129  51.5466 0001564  99.6516 260.4793 13.17649697183383
ONEWEB-0452             
1 51644U 22012Y   25303.27243637  .00000042  00000+0  73853-4 0  9999
2 51644  87.9119  51.6053 0001409 105.9127 254.2160 13.17647860183393
