[{"OBJECT_NAME":"ONEWEB-0425","OBJECT_ID":"2022-012G","EPOCH":"2025-10-30T02:51:06.352992","MEAN_MOTION":13.10374871,"ECCENTRICITY":0.0001267,"INCLINATION":87.8782,"RA_OF_ASC_NODE":82.1224,"ARG_OF_PERICENTER":90.1592,"MEAN_ANOMALY":269.9681,"EPHEMERIS_TYPE":0,"CLASSIFICATION_TYPE":"U","NORAD_CAT_ID":51628,"ELEMENT_SET_NO":999,"REV_AT_EPOCH":17919,"BSTAR":-0.00157494,"MEAN_MOTION_DOT":-5.37e-6,"MEAN_MOTION_DDOT":0},{"OBJECT_NAME":"ONEWEB-0428","OBJECT_ID":"2022-012H","EPOCH":"2025-10-30T02:22:25.938048","MEAN_MOTION":13.10370283,"ECCENTRICITY":0.00016914,"INCLINATION":87.8772,"RA_OF_ASC_NODE":82.1474,"ARG_OF_PERICENTER":102.3189,"MEAN_ANOMALY":257.8127,"EPHEMERIS_TYPE":0,"CLASSIFICATION_TYPE":"U","NORAD_CAT_ID":51629,"ELEMENT_SET_NO":999,"REV_AT_EPOCH":17915,"BSTAR":-0.00099413468,"MEAN_MOTION_DOT":-3.34e-6,"MEAN_MOTION_DDOT":0},{"OBJECT_NAME":"ONEWEB-0431","OBJECT_ID":"2022-012J","EPOCH":"2025-10-30T03:29:10.981536","MEAN_MOTION":13.10374289,"ECCENTRICITY":0.00022459,"INCLINATION":87.8786,"RA_OF_ASC_NODE":82.1139,"ARG_OF_PERICENTER":97.3961,"MEAN_ANOMALY":262.7422,"EPHEMERIS_TYPE":0,"CLASSIFICATION_TYPE":"U","NORAD_CAT_ID":51630,"ELEMENT_SET_NO":999,"REV_AT_EPOCH":17921,"BSTAR":0.0016866134,"MEAN_MOTION_DOT":6.01e-6,"MEAN_MOTION_DDOT":0},{"OBJECT_NAME":"ONEWEB-0434","OBJECT_ID":"2022-012K","EPOCH":"2025-10-30T02:55:53.451552","MEAN_MOTION":13.10374625,"ECCENTRICITY":9.83e-5,"INCLINATION":87.8778,"RA_OF_ASC_NODE":82.1578,"ARG_OF_PERICENTER":84.1893,"MEAN_ANOMALY":275.9346,"EPHEMERIS_TYPE":0,"CLASSIFICATION_TYPE":"U","NORAD_CAT_ID":51631,"ELEMENT_SET_NO":999,"REV_AT_EPOCH":17919,"BSTAR":-0.0014350128,"MEAN_MOTION_DOT":-4.88e-6,"MEAN_MOTION_DDOT":0},{"OBJECT_NAME":"ONEWEB-0435","OBJECT_ID":"2022-012L","EPOCH":"2025-10-30T03:07:51.210048","MEAN_MOTION":13.10375927,"ECCENTRICITY":0.00017038,"INCLINATION":87.8776,"RA_OF_ASC_NODE":82.1473,"ARG_OF_PERICENTER":107.5781,"MEAN_ANOMALY":252.5532,"EPHEMERIS_TYPE":0,"CLASSIFICATION_TYPE":"U","NORAD_CAT_ID":51632,"ELEMENT_SET_NO":999,"REV_AT_EPOCH":17918,"BSTAR":-9.7057299e-5,"MEAN_MOTION_DOT":-2.1e-7,"MEAN_MOTION_DDOT":0},{"OBJECT_NAME":"ONEWEB-0436","OBJECT_ID":"2022-012M","EPOCH":"2025-10-30T04:50:14.974944","MEAN_MOTION":13.17650615,"ECCENTRICITY":0.00018659,"INCLINATION":87.9126,"RA_OF_ASC_NODE":51.5664,"ARG_OF_PERICENTER":106.266,"MEAN_ANOMALY":253.8677,"EPHEMERIS_TYPE":0,"CLASSIFICATION_TYPE":"U","NORAD_CAT_ID":51633,"ELEMENT_SET_NO":999,"REV_AT_EPOCH":18339,"BSTAR":9.6410392e-5,"MEAN_MOTION_DOT":5.0e-7,"MEAN_MOTION_DDOT":0},{"OBJECT_NAME":"ONEWEB-0438","OBJECT_ID":"2022-012N","EPOCH":"2025-10-30T02:43:56.157888","MEAN_MOTION":13.10373422,"ECCENTRICITY":0.00013771,"INCLINATION":87.8774,"RA_OF_ASC_NODE":82.1509,"ARG_OF_PERICENTER":93.1794,"MEAN_ANOMALY":266.9491,"EPHEMERIS_TYPE":0,"CLASSIFICATION_TYPE":"U","NORAD_CAT_ID":51634,"ELEMENT_SET_NO":999,"REV_AT_EPOCH":17921,"BSTAR":-0.0018543821,"MEAN_MOTION_DOT":-6.35e-6,"MEAN_MOTION_DDOT":0},{"OBJECT_NAME":"ONEWEB-0439","OBJECT_ID":"2022-012P","EPOCH":"2025-10-30T02:48:43.156224","MEAN_MOTION":13.1037364,"ECCENTRICITY":0.00015286,"INCLINATION":87.8777,"RA_OF_ASC_NODE":82.1393,"ARG_OF_PERICENTER":98.4094,"MEAN_ANOMALY":261.7207,"EPHEMERIS_TYPE":0,"CLASSIFICATION_TYPE":"U","NORAD_CAT_ID":51635,"ELEMENT_SET_NO":999,"REV_AT_EPOCH":17919,"BSTAR":-0.0017815935,"MEAN_MOTION_DOT":-6.09e-6,"MEAN_MOTION_DDOT":0},{"OBJECT_NAME":"ONEWEB-0442","OBJECT_ID":"2022-012Q","EPOCH":"2025-10-30T06:28:39.502560","MEAN_MOTION":13.17648567,"ECCENTRICITY":0.00013795,"INCLINATION":87.912,"RA_OF_ASC_NODE":51.6043,"ARG_OF_PERICENTER":79.2775,"MEAN_ANOMALY":280.8511,"EPHEMERIS_TYPE":0,"CLASSIFICATION_TYPE":"U","NORAD_CAT_ID":51636,"ELEMENT_SET_NO":999,"REV_AT_EPOCH":18339,"BSTAR":0.00027294065,"MEAN_MOTION_DOT":1.19e-6,"MEAN_MOTION_DDOT":0},{"OBJECT_NAME":"ONEWEB-0443","OBJECT_ID":"2022-012R","EPOCH":"2025-10-30T06:56:36.540384","MEAN_MOTION":13.17648937,"ECCENTRICITY":0.00013772,"INCLINATION":87.9115,"RA_OF_ASC_NODE":51.6066,"ARG_OF_PERICENTER":104.7541,"MEAN_ANOMALY":255.3743,"EPHEMERIS_TYPE":0,"CLASSIFICATION_TYPE":"U","NORAD_CAT_ID":51637,"ELEMENT_SET_NO":999,"REV_AT_EPOCH":18344,"BSTAR":4.6302478e-5,"MEAN_MOTION_DOT":3.1e-7,"MEAN_MOTION_DDOT":0},{"OBJECT_NAME":"ONEWEB-0444","OBJECT_ID":"2022-012S","EPOCH":"2025-10-30T02:34:22.012608","MEAN_MOTION":13.10370604,"ECCENTRICITY":0.00015966,"INCLINATION":87.8772,"RA_OF_ASC_NODE":82.1404,"ARG_OF_PERICENTER":99.2616,"MEAN_ANOMALY":260.8692,"EPHEMERIS_TYPE":0,"CLASSIFICATION_TYPE":"U","NORAD_CAT_ID":51638,"ELEMENT_SET_NO":999,"REV_AT_EPOCH":17920,"BSTAR":-0.0019215431,"MEAN_MOTION_DOT":-6.58e-6,"MEAN_MOTION_DDOT":0},{"OBJECT_NAME":"ONEWEB-0445","OBJECT_ID":"2022-012T","EPOCH":"2025-10-29T21:35:35.965248","MEAN_MOTION":13.10375706,"ECCENTRICITY":0.0001642,"INCLINATION":87.8792,"RA_OF_ASC_NODE":82.1417,"ARG_OF_PERICENTER":89.6045,"MEAN_ANOMALY":270.527,"EPHEMERIS_TYPE":0,"CLASSIFICATION_TYPE":"U","NORAD_CAT_ID":51639,"ELEMENT_SET_NO":999,"REV_AT_EPOCH":17918,"BSTAR":0.00019016352,"MEAN_MOTION_DOT":7.9e-7,"MEAN_MOTION_DDOT":0},{"OBJECT_NAME":"ONEWEB-0446","OBJECT_ID":"2022-012U","EPOCH":"2025-10-30T02:31:59.063808","MEAN_MOTION":13.1037193,"ECCENTRICITY":0.00017099,"INCLINATION":87.8776,"RA_OF_ASC_NODE":82.157,"ARG_OF_PERICENTER":91.4869,"MEAN_ANOMALY":268.6454,"EPHEMERIS_TYPE":0,"CLASSIFICATION_TYPE":"U","NORAD_CAT_ID":51640,"ELEMENT_SET_NO":999,"REV_AT_EPOCH":17919,"BSTAR":-0.0015903705,"MEAN_MOTION_DOT":-5.42e-6,"MEAN_MOTION_DDOT":0},{"OBJECT_NAME":"ONEWEB-0448","OBJECT_ID":"2022-012V","EPOCH":"2025-10-30T02:39:09.151776","MEAN_MOTION":13.10373109,"ECCENTRICITY":0.00015305,"INCLINATION":87.8778,"RA_OF_ASC_NODE":82.1559,"ARG_OF_PERICENTER":99.9372,"MEAN_ANOMALY":260.1928,"EPHEMERIS_TYPE":0,"CLASSIFICATION_TYPE":"U","NORAD_CAT_ID":51641,"ELEMENT_SET_NO":999,"REV_AT_EPOCH":17916,"BSTAR":-0.001840813,"MEAN_MOTION_DOT":-6.3e-6,"MEAN_MOTION_DDOT":0},{"OBJECT_NAME":"ONEWEB-0449","OBJECT_ID":"2022-012W","EPOCH":"2025-10-29T21:16:27.575328","MEAN_MOTION":13.10375274,"ECCENTRICITY":0.0001123,"INCLINATION":87.8781,"RA_OF_ASC_NODE":82.1697,"ARG_OF_PERICENTER":88.7996,"MEAN_ANOMALY":271.326,"EPHEMERIS_TYPE":0,"CLASSIFICATION_TYPE":"U","NORAD_CAT_ID":51642,"ELEMENT_SET_NO":999,"REV_AT_EPOCH":17914,"BSTAR":-0.0014381517,"MEAN_MOTION_DOT":-4.89e-6,"MEAN_MOTION_DDOT":0},{"OBJECT_NAME":"ONEWEB-0451","OBJECT_ID":"2022-012X","EPOCH":"2025-10-30T06:34:44.739552","MEAN_MOTION":13.17649697,"ECCENTRICITY":0.00015644,"INCLINATION":87.9129,"RA_OF_ASC_NODE":51.5466,"ARG_OF_PERICENTER":99.6516,"MEAN_ANOMALY":260.4793,"EPHEMERIS_TYPE":0,"CLASSIFICATION_TYPE":"U","NORAD_CAT_ID":51643,"ELEMENT_SET_NO":999,"REV_AT_EPOCH":18338,"BSTAR":5.1373006e-5,"MEAN_MOTION_DOT":3.3e-7,"MEAN_MOTION_DDOT":0},{"OBJECT_NAME":"ONEWEB-0452","OBJECT_ID":"2022-012Y","EPOCH":"2025-10-30T06:32:18.502368","MEAN_MOTION":13.1764786,"ECCENTRICITY":0.00014091,"INCLINATION":87.9119,"RA_OF_ASC_NODE":51.6053,"ARG_OF_PERICENTER":105.9127,"MEAN_ANOMALY":254.216,"EPHEMERIS_TYPE":0,"CLASSIFICATION_TYPE":"U","NORAD_CAT_ID":51644,"ELEMENT_SET_NO":999,"REV_AT_EPOCH":18339,"BSTAR":7.3853407e-5,"MEAN_MOTION_DOT":4.2e-7,"MEAN_MOTION_DDOT":0}]
